IRIDIUM 150             
1 43257U 18030J   25132.18846367  .00000198  00000+0  63722-4 0  9990
2 43257  86.3937  98.1166 0002583  91.2158 268.9334 14.34216936372707
IRIDIUM 143             
1 43258U 18030K   25131.89036498  .00000074  00000+0  19269-4 0  9994
2 43258  86.3939  98.3184 0002752  91.2550 268.8961 14.34217854372576
IRIDIUM 161             
1 43478U 18047C   25131.81277186  .00000402  00000+0  11344-3 0  9999
2 43478  86.4479 256.1394 0002068  92.5544 267.5894 14.43278332367241
IRIDIUM 152             
1 43479U 18047D   25131.86308089  .00000162  00000+0  50828-4 0  9996
2 43479  86.3955 255.9788 0002063  97.3686 262.7744 14.34217700364979
IRIDIUM 147             
1 43480U 18047E   25131.86942415  .00000091  00000+0  25388-4 0  9999
2 43480  86.3956 255.9741 0002135  90.7726 269.3714 14.34218066364968
IRIDIUM 110             
1 43481U 18047F   25131.87576560  .00000148  00000+0  45655-4 0  9997
2 43481  86.3957 256.0529 0001697  92.2711 267.8679 14.34218031364953
IRIDIUM 162             
1 43482U 18047G   25131.80646594  .00000340  00000+0  95097-4 0  9995
2 43482  86.4479 256.0377 0001939  99.3105 260.8316 14.43279861367232
IRIDIUM 160             
1 43569U 18061A   25132.24021402  .00000037  00000+0  61324-5 0  9991
2 43569  86.4008 224.2854 0002038  93.6302 266.5127 14.34217846355909
